COMMENT,ORIGINATOR,NORAD_CAT_ID,OBJECT_NAME,OBJECT_TYPE,CLASSIFICATION_TYPE,INTLDES,EPOCH,EPOCH_MICROSECONDS,MEAN_MOTION,ECCENTRICITY,INCLINATION,RA_OF_ASC_NODE,ARG_OF_PERICENTER,MEAN_ANOMALY,EPHEMERIS_TYPE,ELEMENT_SET_NO,REV_AT_EPOCH,BSTAR,MEAN_MOTION_DOT,MEAN_MOTION_DDOT,FILE,TLE_LINE0,TLE_LINE1,TLE_LINE2,OBJECT_ID,OBJECT_NUMBER,SEMIMAJOR_AXIS,PERIOD,APOGEE,PERIGEE,DECAYED,date
GENERATED VIA SPACETRACK.ORG API,18 SPCS,48894,SPACEBEE-107,PAYLOAD,U,21059R,2023/4/14 7:53,55936,15.28545191,0.0007699,97.5873,240.4196,143.2748,216.902,0,999,9965,0.0015386,0.00042889,0,3887333,0 SPACEBEE-107,1 48894U 21059R   23104.32853074  .00042889  00000-0  15386-2 0  9998,2 48894  97.5873 240.4196 0007699 143.2748 216.9020 15.28545191 99650,2021-059R,48894,6858.297,94.207,485.443,474.882,0,
GENERATED VIA SPACETRACK.ORG API,18 SPCS,48894,SPACEBEE-107,PAYLOAD,U,21059R,2023/4/14 20:27,781728,15.2859719,0.0007686,97.5876,240.9535,141.2466,218.9325,0,999,9973,0.001713,0.00047867,0,3887444,0 SPACEBEE-107,1 48894U 21059R   23104.85223127  .00047867  00000-0  17130-2 0  9996,2 48894  97.5876 240.9535 0007686 141.2466 218.9325 15.28597190 99731,2021-059R,48894,6858.142,94.204,485.278,474.736,0,
GENERATED VIA SPACETRACK.ORG API,18 SPCS,48894,SPACEBEE-107,PAYLOAD,U,21059R,2023/4/15 9:01,14528,15.28646288,0.0007705,97.5876,241.487,139.159,221.0228,0,999,9981,0.0016666,0.0004663,0,3887974,0 SPACEBEE-107,1 48894U 21059R   23105.37591452  .00046630  00000-0  16666-2 0  9993,2 48894  97.5876 241.4870 0007705 139.1590 221.0228 15.28646288 99814,2021-059R,48894,6857.995,94.201,485.144,474.576,0,
GENERATED VIA SPACETRACK.ORG API,18 SPCS,48894,SPACEBEE-107,PAYLOAD,U,21059R,2023/4/15 21:35,707680,15.28699401,0.0007668,97.5877,242.0208,137.4601,222.7234,0,999,9989,0.0017313,0.00048534,0,3888171,0 SPACEBEE-107,1 48894U 21059R   23105.89957995  .00048534  00000-0  17313-2 0  9993,2 48894  97.5877 242.0208 0007668 137.4601 222.7234 15.28699401 99897,2021-059R,48894,6857.836,94.198,484.96,474.443,0,
GENERATED VIA SPACETRACK.ORG API,18 SPCS,48894,SPACEBEE-107,PAYLOAD,U,21059R,2023/4/16 8:35,573376,15.28743069,0.0007642,97.5876,242.4877,135.7523,224.4329,0,999,9996,0.0016836,0.0004725,0,3888626,0 SPACEBEE-107,1 48894U 21059R   23106.35777284  .00047250  00000-0  16836-2 0  9999,2 48894  97.5876 242.4877 0007642 135.7523 224.4329 15.28743069 99960,2021-059R,48894,6857.706,94.195,484.811,474.33,0,
GENERATED VIA SPACETRACK.ORG API,18 SPCS,48894,SPACEBEE-107,PAYLOAD,U,21059R,2023/4/16 21:09,385952,15.28794364,0.0007569,97.5878,243.0214,134.365,225.8211,0,999,10004,0.0016354,0.00045958,0,3888799,0 SPACEBEE-107,1 48894U 21059R   23106.88140493  .00045958  00000-0  16354-2 0  9991,2 48894  97.5878 243.0214 0007569 134.3650 225.8211 15.28794364100049,2021-059R,48894,6857.552,94.192,484.608,474.227,0,
GENERATED VIA SPACETRACK.ORG API,18 SPCS,48894,SPACEBEE-107,PAYLOAD,U,21059R,2023/4/17 8:08,778016,15.28839556,0.0007462,97.5881,243.4884,132.4696,227.7175,0,999,10011,0.0017217,0.00048469,0,3889095,0 SPACEBEE-107,1 48894U 21059R   23107.33956919  .00048469  00000-0  17217-2 0  9999,2 48894  97.5881 243.4884 0007462 132.4696 227.7175 15.28839556100112,2021-059R,48894,6857.417,94.189,484.399,474.165,0,
GENERATED VIA SPACETRACK.ORG API,18 SPCS,48894,SPACEBEE-107,PAYLOAD,U,21059R,2023/4/17 8:08,778016,15.28839556,0.0007462,97.5881,243.4884,132.4696,227.7175,0,999,10011,0.0017217,0.00048469,0,3889215,0 SPACEBEE-107,1 48894U 21059R   23107.33956919  .00048469  00000-0  17217-2 0  9999,2 48894  97.5881 243.4884 0007462 132.4696 227.7175 15.28839556100112,2021-059R,48894,6857.417,94.189,484.399,474.165,0,
GENERATED VIA SPACETRACK.ORG API,18 SPCS,48894,SPACEBEE-107,PAYLOAD,U,21059R,2023/4/17 20:42,857760,15.28890402,0.0007402,97.5884,244.0223,130.563,229.6255,0,999,10019,0.0017576,0.00049565,0,3889391,0 SPACEBEE-107,1 48894U 21059R   23107.86316965  .00049565  00000-0  17576-2 0  9994,2 48894  97.5884 244.0223 0007402 130.5630 229.6255 15.28890402100195,2021-059R,48894,6857.265,94.186,484.206,474.054,0,
GENERATED VIA SPACETRACK.ORG API,18 SPCS,48894,SPACEBEE-107,PAYLOAD,U,21059R,2023/4/18 7:42,840992,15.28930806,0.0007416,97.5883,244.4896,129.245,230.9448,0,999,10026,0.0016307,0.00046016,0,3889684,0 SPACEBEE-107,1 48894U 21059R   23108.32130603  .00046016  00000-0  16307-2 0  9998,2 48894  97.5883 244.4896 0007416 129.2450 230.9448 15.28930806100264,2021-059R,48894,6857.144,94.183,484.095,473.924,0,
GENERATED VIA SPACETRACK.ORG API,18 SPCS,48894,SPACEBEE-107,PAYLOAD,U,21059R,2023/4/19 4:07,175616,15.29013502,0.0007398,97.5888,245.3572,126.0642,234.1284,0,999,10039,0.0018176,0.00051466,0,3890081,0 SPACEBEE-107,1 48894U 21059R   23109.17209694  .00051466  00000-0  18176-2 0  9990,2 48894  97.5888 245.3572 0007398 126.0642 234.1284 15.29013502100391,2021-059R,48894,6856.897,94.178,483.835,473.689,0,
GENERATED VIA SPACETRACK.ORG API,18 SPCS,48894,SPACEBEE-107,PAYLOAD,U,21059R,2023/4/19 8:50,74656,15.29033041,0.0007404,97.5888,245.5574,125.2548,234.9385,0,999,10042,0.0017959,0.00050877,0,3890383,0 SPACEBEE-107,1 48894U 21059R   23109.36842679  .00050877  00000-0  17959-2 0  9990,2 48894  97.5888 245.5574 0007404 125.2548 234.9385 15.29033041100423,2021-059R,48894,6856.839,94.177,483.78,473.627,0,
GENERATED VIA SPACETRACK.ORG API,18 SPCS,48894,SPACEBEE-107,PAYLOAD,U,21059R,2023/4/20 3:41,586848,15.29101286,0.0007345,97.589,246.3583,122.9067,237.288,0,999,10054,0.0014929,0.0004232,0,3890608,0 SPACEBEE-107,1 48894U 21059R   23110.15372207  .00042320  00000-0  14929-2 0  9992,2 48894  97.5890 246.3583 0007345 122.9067 237.2880 15.29101286100545,2021-059R,48894,6856.635,94.173,483.536,473.463,0,
GENERATED VIA SPACETRACK.ORG API,18 SPCS,48894,SPACEBEE-107,PAYLOAD,U,21059R,2023/4/20 8:24,498336,15.29117754,0.0007328,97.5891,246.5585,122.167,238.0281,0,999,10057,0.0014218,0.0004031,0,3890827,0 SPACEBEE-107,1 48894U 21059R   23110.35004049  .00040310  00000-0  14218-2 0  9998,2 48894  97.5891 246.5585 0007328 122.1670 238.0281 15.29117754100577,2021-059R,48894,6856.585,94.172,483.475,473.426,0,
GENERATED VIA SPACETRACK.ORG API,18 SPCS,48894,SPACEBEE-107,PAYLOAD,U,21059R,2023/4/20 14:40,100096,15.29138394,0.0007315,97.5893,246.8254,121.242,238.9537,0,999,10061,0.0013722,0.00038919,0,3891109,0 SPACEBEE-107,1 48894U 21059R   23110.61179514  .00038919  00000-0  13722-2 0  9998,2 48894  97.5893 246.8254 0007315 121.2420 238.9537 15.29138394100615,2021-059R,48894,6856.524,94.171,483.404,473.373,0,
GENERATED VIA SPACETRACK.ORG API,18 SPCS,48894,SPACEBEE-107,PAYLOAD,U,21059R,2023/4/20 22:32,164896,15.29165702,0.0007268,97.5894,247.1592,120.2,239.996,0,999,10066,0.0013882,0.00039409,0,3891529,0 SPACEBEE-107,1 48894U 21059R   23110.93898339  .00039409  00000-0  13882-2 0  9998,2 48894  97.5894 247.1592 0007268 120.2000 239.9960 15.29165702100664,2021-059R,48894,6856.442,94.169,483.29,473.324,0,
GENERATED VIA SPACETRACK.ORG API,18 SPCS,48894,SPACEBEE-107,PAYLOAD,U,21059R,2023/4/21 15:48,543616,15.29218311,0.0007217,97.5896,247.8934,117.7738,242.4234,0,999,10077,0.0013297,0.00037797,0,3891592,0 SPACEBEE-107,1 48894U 21059R   23111.65877944  .00037797  00000-0  13297-2 0  9995,2 48894  97.5896 247.8934 0007217 117.7738 242.4234 15.29218311100776,2021-059R,48894,6856.285,94.166,483.098,473.202,0,
GENERATED VIA SPACETRACK.ORG API,18 SPCS,48894,SPACEBEE-107,PAYLOAD,U,21059R,2023/4/21 15:48,543616,15.29218311,0.0007217,97.5896,247.8934,117.7738,242.4234,0,999,10077,0.0013297,0.00037797,0,3891716,0 SPACEBEE-107,1 48894U 21059R   23111.65877944  .00037797  00000-0  13297-2 0  9995,2 48894  97.5896 247.8934 0007217 117.7738 242.4234 15.29218311100776,2021-059R,48894,6856.285,94.166,483.098,473.202,0,
GENERATED VIA SPACETRACK.ORG API,18 SPCS,48894,SPACEBEE-107,PAYLOAD,U,21059R,2023/4/22 7:30,123904,15.2927605,0.0007192,97.5899,248.561,115.3584,244.8401,0,999,10087,0.0014615,0.00041646,0,3892071,0 SPACEBEE-107,1 48894U 21059R   23112.31311486  .00041646  00000-0  14615-2 0  9996,2 48894  97.5899 248.5610 0007192 115.3584 244.8401 15.29276050100870,2021-059R,48894,6856.112,94.162,482.908,473.046,0,
GENERATED VIA SPACETRACK.ORG API,18 SPCS,48894,SPACEBEE-107,PAYLOAD,U,21059R,2023/4/22 9:05,455616,15.29282919,0.0007209,97.59,248.6276,115.0204,245.1785,0,999,10088,0.0014832,0.00042278,0,3892163,0 SPACEBEE-107,1 48894U 21059R   23112.37854694  .00042278  00000-0  14832-2 0  9998,2 48894  97.5900 248.6276 0007209 115.0204 245.1785 15.29282919100888,2021-059R,48894,6856.092,94.162,482.899,473.014,0,
GENERATED VIA SPACETRACK.ORG API,18 SPCS,48894,SPACEBEE-107,PAYLOAD,U,21059R,2023/4/22 9:05,455616,15.29282919,0.0007209,97.59,248.6276,115.0204,245.1785,0,999,10088,0.0014832,0.00042278,0,3892285,0 SPACEBEE-107,1 48894U 21059R   23112.37854694  .00042278  00000-0  14832-2 0  9998,2 48894  97.5900 248.6276 0007209 115.0204 245.1785 15.29282919100888,2021-059R,48894,6856.092,94.162,482.899,473.014,0,
GENERATED VIA SPACETRACK.ORG API,18 SPCS,48894,SPACEBEE-107,PAYLOAD,U,21059R,2023/4/23 10:12,479456,15.2936228,0.000715,97.5902,249.6957,111.4998,248.7004,0,999,10104,0.0013579,0.00038775,0,3892573,0 SPACEBEE-107,1 48894U 21059R   23113.42543379  .00038775  00000-0  13579-2 0  9994,2 48894  97.5902 249.6957 0007150 111.4998 248.7004 15.29362280101044,2021-059R,48894,6855.854,94.157,482.621,472.818,0,
GENERATED VIA SPACETRACK.ORG API,18 SPCS,48894,SPACEBEE-107,PAYLOAD,U,21059R,2023/4/23 10:12,479456,15.2936228,0.000715,97.5902,249.6957,111.4998,248.7004,0,999,10104,0.0013579,0.00038775,0,3892688,0 SPACEBEE-107,1 48894U 21059R   23113.42543379  .00038775  00000-0  13579-2 0  9994,2 48894  97.5902 249.6957 0007150 111.4998 248.7004 15.29362280101044,2021-059R,48894,6855.854,94.157,482.621,472.818,0,
